BEESAT-4                
1 41619U 16040W   23018.37594529  .00054286  00000+0  13667-2 0  9999
2 41619  97.1879  68.9174 0008828  67.3749 292.8430 15.39696089353680
RAVAN                   
1 41849U 16067B   23018.36459799  .00013586  00000+0  10177-2 0  9992
2 41849  98.0125 167.0628 0017430 332.1921  27.8370 15.02714209338247
CELTEE 1                
1 41850U 16067C   23018.32987077  .00007415  00000+0  60608-3 0  9994
2 41850  98.0202 161.2865 0005786 359.0836   1.0375 14.99665847337941
OPTICUBE 04             
1 41851U 16067D   23018.63172977  .00003938  00000+0  33355-3 0  9999
2 41851  98.0216 160.3319 0009058 350.8790   9.2266 14.98581817337925
AEROCUBE 8D             
1 41852U 16067E   23018.32463128  .00008413  00000+0  68573-3 0  9990
2 41852  98.0172 160.2526 0006360 357.2617   2.8569 14.99729767337887
AEROCUBE 8C             
1 41853U 16067F   23018.37624855  .00008112  00000+0  66151-3 0  9998
2 41853  98.0162 160.1089 0008965 333.0310  27.0445 14.99706683337889
PROMETHEUS 2-1          
1 41854U 16067G   23018.65752267  .00013593  00000+0  10399-2 0  9990
2 41854  98.0474 162.2422 0017985   1.4255 358.7016 15.01905603338017
PROMETHEUS 2-3          
1 41855U 16067H   23018.38230334  .00013626  00000+0  10439-2 0  9999
2 41855  98.0392 161.9793 0015680  16.4293 343.7436 15.01882880337977
INS-1B                  
1 41954U 17008G   23018.61297681  .00048109  00000+0  12212-2 0  9994
2 41954  97.2291  79.6435 0006026 171.6720 188.4627 15.39496151329742
BGUSAT                  
1 41999U 17008BD  23018.46445773  .00297384  00000+0  23407-2 0  9992
2 41999  97.2534  95.7976 0000632 153.5992 206.5303 15.70573712329957
DIDO-2                  
1 42000U 17008BE  23018.43894167  .00028018  00000+0  88847-3 0  9994
2 42000  97.2288  77.4359 0005961 201.6129 158.4863 15.32646693328947
PEASSS                  
1 42015U 17008BV  23018.61297810  .00040000  00000+0  10511-2 0  9999
2 42015  97.2358  82.9378 0003986 185.0034 175.1172 15.38485826329763
AL-FARABI 1             
1 42016U 17008BW  23018.44276030  .00071744  00000+0  15161-2 0  9997
2 42016  97.2425  87.3054 0003145 179.2947 180.8307 15.44911587330102
NAYIF-1 (EO-88)         
1 42017U 17008BX  23018.17007240  .00053315  00000+0  11182-2 0  9996
2 42017  97.2418  87.0887 0003320 179.8533 180.2717 15.45214930330094
UCLSAT                  
1 42765U 17036A   23018.33502663  .00044080  00000+0  12235-2 0  9993
2 42765  97.1701  59.7575 0006449 275.2458  84.8051 15.36753810310767
LITUANICASAT-2          
1 42768U 17036D   23018.57967252  .00149598  00000+0  21990-2 0  9999
2 42768  97.1750  66.0776 0006043 238.9243 121.1419 15.54934168310418
AALTO-1                 
1 42775U 17036L   23018.54578538  .00020882  00000+0  73381-3 0  9995
2 42775  97.1740  53.3892 0009652 284.6813  75.3357 15.29355967309609
URSA MAIOR              
1 42776U 17036M   23018.55437076  .00023991  00000+0  81592-3 0  9995
2 42776  97.1750  54.3946 0009209 281.9208  78.1000 15.30397594309653
COMPASS 2               
1 42777U 17036N   23018.08605069  .00062021  00000+0  13543-2 0  9990
2 42777  97.1760  63.1671 0006174 254.4982 105.5585 15.43969914310111
DIAMOND RED             
1 42783U 17036U   23018.57550487  .00029135  00000+0  93465-3 0  9995
2 42783  97.1743  57.2184 0007622 285.7920  74.2481 15.32256046309826
PEGASUS                 
1 42784U 17036V   23018.35199428  .00038015  00000+0  11118-2 0  9997
2 42784  97.1732  58.7444 0007042 279.8331  80.2117 15.35144475309903
DIAMOND GREEN           
1 42785U 17036W   23018.37359020  .00031536  00000+0  10049-2 0  9999
2 42785  97.1751  57.1043 0007467 288.0956  71.9472 15.32456415309862
DIAMOND BLUE            
1 42786U 17036X   23018.37504514  .00031093  00000+0  99308-3 0  9994
2 42786  97.1746  57.0931 0007534 289.0653  70.9773 15.32384709309861
NUDTSAT                 
1 42787U 17036Y   23018.58604353  .00073290  00000+0  14719-2 0  9997
2 42787  97.1728  65.3653 0005111 253.5769 106.4925 15.46391230310170
SUCHAI                  
1 42788U 17036Z   23018.07124913  .00037686  00000+0  98283-3 0  9999
2 42788  97.1730  60.8823 0006215 273.0367  87.0168 15.38720198310083
SKCUBE                  
1 42789U 17036AA  23018.54722229  .00042301  00000+0  11631-2 0  9997
2 42789  97.1728  60.4632 0006419 272.6861  87.3649 15.37057089310027
VZLUSAT-1               
1 42790U 17036AB  23018.56561496  .00086858  00000+0  17691-2 0  9995
2 42790  97.1733  65.2364 0004875 256.0149 104.0559 15.45925836310311
ROBUSTA 1B              
1 42792U 17036AD  23018.07174231  .00037728  00000+0  10013-2 0  9993
2 42792  97.1723  60.7951 0005883 273.9033  86.1540 15.38181977310013
CICERO 6                
1 42793U 17036AE  23018.56707566  .00024242  00000+0  79322-3 0  9997
2 42793  97.1730  57.6201 0006451 286.8812  73.1723 15.31664902309941
CORVUS BC2              
1 42846U 17042X   23018.52549461  .00004847  00000+0  46336-3 0  9995
2 42846  97.3977 228.4354 0009398   6.2875 353.8462 14.93636328300372
CORVUS BC1              
1 42847U 17042Y   23018.52595361  .00005164  00000+0  49234-3 0  9999
2 42847  97.3977 228.7738 0009073   5.5265 354.6055 14.93720002300388
MIRATA                  
1 43015U 17073C   23018.49562728  .00019699  00000+0  13417-2 0  9999
2 43015  97.6530 270.9870 0226073 191.8730 167.7106 14.87787209279196
MAKERSAT 0              
1 43016U 17073D   23018.23192923  .00012925  00000+0  91925-3 0  9994
2 43016  97.6535 269.6600 0236414 199.4040 159.8061 14.84920391279039
CORVUS BC3              
1 43118U 18004H   23018.15480784  .00017167  00000+0  56580-3 0  9999
2 43118  97.3419  93.3309 0007792 329.8105  30.2687 15.31497082279028
MICROMAS-2A             
1 43131U 18004W   23018.46666131  .00147387  00000+0  22583-2 0  9993
2 43131  97.3542 105.0136 0005486 298.1283  61.9415 15.53800466279727
CICERO 7                
1 43143U 18004AJ  23018.17290611  .00037024  00000+0  88329-3 0  9997
2 43143  97.3569 102.4275 0004252 320.9884  39.1055 15.41451661279559
GOMX-4B                 
1 43196U 18015E   23018.40358565  .00019704  00000+0  66371-3 0  9994
2 43196  97.5568 165.6646 0016788  21.5360 338.6583 15.30659711275992
GOMX-4A                 
1 43197U 18015F   23018.49859043  .00022442  00000+0  70366-3 0  9993
2 43197  97.5569 167.2044 0016164  18.8673  52.1488 15.32945436276119
AEROCUBE 12A            
1 43556U 18046C   23018.55119077  .00083748  00000+0  13434-2 0  9997
2 43556  51.6296 207.3711 0005560 123.7682 236.3838 15.52321748252550
AEROCUBE 12B            
1 43557U 18046D   23018.60677912  .00058843  00000+0  11486-2 0  9994
2 43557  51.6329 216.6393 0006438 109.1012 251.0673 15.46896043252387
SURFSAT                 
1 43614U 18070B   23018.64263021  .01070091  63960-3  15043-2 0  9992
2 43614  92.9895 191.4102 0005444 284.2351  75.8334 16.05944762244781
CP7 (DAVE)              
1 43615U 18070C   23018.44391749  .00420651  00000+0  14831-2 0  9996
2 43615  92.9920 190.6692 0004984 265.7491  94.3220 15.88128134244645
CUBEBEL-1 (BSUSAT-1)    
1 43666U 18083E   23018.44421318  .00032360  00000+0  11641-2 0  9994
2 43666  97.4007  50.0909 0010504 301.1851 166.7535 15.28495397234258
CICERO 10               
1 43690U 18088A   23018.42666471  .00027957  00000+0  97443-3 0  9996
2 43690  85.0354 173.2645 0013686  71.3508 288.9223 15.29419514232557
IRVINE01                
1 43693U 18088D   23018.37058147  .00808301  00000+0  35270-2 0  9997
2 43693  85.0097 162.2887 0010707 328.7517  31.3120 15.82685634233510
PROXIMA I               
1 43694U 18088E   23018.40805900  .00029554  00000+0  97420-3 0  9990
2 43694  85.0290 169.4072 0016295  39.7169 320.5268 15.31184328232806
PROXIMA II              
1 43696U 18088G   23018.54390678  .00027834  00000+0  91905-3 0  9999
2 43696  85.0292 169.3471 0016361  39.1490 321.0937 15.31132881232814
FACSAT-1                
1 43721U 18096C   23018.48979740  .00090696  00000+0  16299-2 0  9991
2 43721  97.3323 104.4290 0010215 356.2234 127.6907 15.49488512231094
CENTAURI-2              
1 43722U 18096D   23018.50705827  .00197165  00000+0  22710-2 0  9992
2 43722  97.3351 108.4525 0009450 336.0385  24.0431 15.61272289231327
SIRION PATHFINDER-2     
1 43759U 18099B   23018.43976649  .00006048  00000+0  52523-3 0  9994
2 43759  97.5948  84.3845 0012587 258.6818 101.2990 14.97320125225202
CORVUS BC4              
1 43767U 18099K   23018.47934357  .00004921  00000+0  43502-3 0  9992
2 43767  97.5912  82.6106 0009829 267.2436  92.7661 14.96736909225120
MOVE-II                 
1 43780U 18099Y   23018.14261668  .00010369  00000+0  83597-3 0  9990
2 43780  97.6057  85.5490 0009915 279.5515  80.4589 15.00044983225217
SPACEBEE-7              
1 43816U 18099BL  23018.43497804  .00011651  00000+0  95160-3 0  9999
2 43816  97.6012  86.5244 0012546 252.4998 107.4854 14.99492553224845
SPACEBEE-5              
1 43817U 18099BM  23018.46672414  .00039221  00000+0  26400-2 0  9998
2 43817  97.6136  91.2693 0004106 242.7256 117.3554 15.06584329225071
SPACEBEE-6              
1 43818U 18099BN  23018.46212929  .00018253  00000+0  14122-2 0  9990
2 43818  97.6129  87.9771 0013968 266.4848  93.4779 15.01448500225066
SHIELDS 1               
1 43850U 18104B   23018.42293158  .00011178  00000+0  43755-3 0  9996
2 43850  85.0274 269.3851 0013055 181.7917 178.3283 15.25599530227254
STF-1                   
1 43852U 18104D   23018.40121556  .00032183  00000+0  10243-2 0  9992
2 43852  85.0282 268.7818 0010242 186.4747 173.6370 15.32384035227388
ZACUBE-2                
1 43907U 18111AH  23018.68059888  .00025867  00000+0  82736-3 0  9997
2 43907  97.1616 262.4856 0019325  37.0950  47.7202 15.32218298226195
LUME 1                  
1 43908U 18111AJ  23018.56670873  .00035168  00000+0  99225-3 0  9994
2 43908  97.1642 264.9140 0017053  29.3824 330.8376 15.36165209226340
